ONEWEB-0538             
1 56047U 23043B   24074.92524555  .00000169  00000+0  40769-3 0  9992
2 56047  87.9106  32.8246 0001675  79.2600 280.8719 13.16593201 50510
ONEWEB-0546             
1 56048U 23043C   24074.91258266  .00000021  00000+0  21536-4 0  9994
2 56048  87.9111  32.7892 0002184 107.2092 252.9278 13.16593920 50503
ONEWEB-0547             
1 56049U 23043D   24074.91475464  .00000060  00000+0  11391-3 0  9996
2 56049  87.9251  48.0330 0001418  86.4185 273.7111 13.21827077 49331
ONEWEB-0548             
1 56050U 23043E   24074.93791699  .00000127  00000+0  29739-3 0  9990
2 56050  87.9107  32.8288 0002508  75.3662 284.7746 13.16593673 50507
ONEWEB-0549             
1 56051U 23043F   24074.90686612 -.00000037  00000+0 -12066-3 0  9993
2 56051  87.9250  48.0343 0001846  79.9377 280.1965 13.21826501 49332
ONEWEB-0550             
1 56052U 23043G   24074.89425480  .00000014  00000+0  21345-5 0  9991
2 56052  87.9247  48.0479 0002081  78.5799 281.5569 13.21826936 49331
ONEWEB-0551             
1 56053U 23043H   24074.92197558 -.00000009  00000+0 -58442-4 0  9991
2 56053  87.8968  63.2695 0001726  80.2613 279.8712 13.15547484 48026
ONEWEB-0552             
1 56054U 23043J   24074.88794565  .00000138  00000+0  30367-3 0  9994
2 56054  87.9249  48.0593 0002062  73.3392 286.7968 13.21827642 49338
